STARLINK-31309          
1 59164U 24044N   26068.53467023  .00001971  00000+0  81151-4 0  9998
2 59164  43.0014 107.7527 0000183 226.0341 134.0496 15.27568070113573
FLOCK 4G-2              
1 62661U 25009BE  26068.66207492  .00013752  00000+0  51068-3 0  9995
2 62661  97.4044 151.2221 0003181 329.2677  30.8376 15.27675260121321
